GOES 18                 
1 51850U 22021A   26062.77332172  .00000083  00000+0  00000+0 0  9993
2 51850   0.0285  75.7364 0000601 319.5556 267.6184  1.00271736  5533
GOES 19                 
1 60133U 24119A   26062.78536846 -.00000262  00000+0  00000+0 0  9992
2 60133   0.0185 323.3882 0000971  55.1468 350.5370  1.00272073  5903
